{
  "type": "FeatureCollection",
  "features": [
    {
      "type": "Feature",
      "properties": {
        "norad_id": 44873,
        "name": "CSG-1",
        "group": "resource",
        "lat": -39.45006931032808,
        "lon": -21.84905610811072,
        "alt_km": 629.7616335657813,
        "timestamp": "2025-12-09T07:41:32.860684+00:00",
        "meta_object_name": "CSG-1",
        "meta_object_id": "2019-092A",
        "meta_epoch": "2025-12-08T22:36:09.404928",
        "meta_mean_motion": 14.82155588,
        "meta_eccentricity": 0.00014628,
        "meta_inclination": 97.8812,
        "meta_ra_of_asc_node": 164.3231,
        "meta_arg_of_pericenter": 86.0584,
        "meta_mean_anomaly": 274.0797,
        "meta_ephemeris_type": 0,
        "meta_classification_type": "U",
        "meta_norad_cat_id": 44873,
        "meta_element_set_no": 999,
        "meta_rev_at_epoch": 32329,
        "meta_bstar": 0.00013262038,
        "meta_mean_motion_dot": 1.004e-05,
        "meta_mean_motion_ddot": 0,
        "tle_line1": "1 44873U 19092A   25342.94177552  .00001004  00000+0  13262-3 0  9994",
        "tle_line2": "2 44873  97.8812 164.3231 0001462  86.0584 274.0797 14.82155588323299"
      },
      "geometry": {
        "type": "Point",
        "coordinates": [
          -21.84905610811072,
          -39.45006931032808
        ]
      }
    },
    {
      "type": "Feature",
      "properties": {
        "norad_id": 46277,
        "name": "NEMO-HD",
        "group": "resource",
        "lat": 24.186904366609493,
        "lon": 39.19734424825828,
        "alt_km": 443.8158779925834,
        "timestamp": "2025-12-09T07:41:32.860694+00:00",
        "meta_object_name": "NEMO-HD",
        "meta_object_id": "2020-061F",
        "meta_epoch": "2025-12-08T23:47:26.422656",
        "meta_mean_motion": 15.40205886,
        "meta_eccentricity": 0.00021124,
        "meta_inclination": 97.2211,
        "meta_ra_of_asc_node": 42.137,
        "meta_arg_of_pericenter": 60.9802,
        "meta_mean_anomaly": 299.1656,
        "meta_ephemeris_type": 0,
        "meta_classification_type": "U",
        "meta_norad_cat_id": 46277,
        "meta_element_set_no": 999,
        "meta_rev_at_epoch": 29266,
        "meta_bstar": 0.00031689349,
        "meta_mean_motion_dot": 0.00012654,
        "meta_mean_motion_ddot": 0,
        "tle_line1": "1 46277U 20061F   25342.99127804  .00012654  00000+0  31689-3 0  9998",
        "tle_line2": "2 46277  97.2211  42.1370 0002112  60.9802 299.1656 15.40205886292660"
      },
      "geometry": {
        "type": "Point",
        "coordinates": [
          39.19734424825828,
          24.186904366609493
        ]
      }
    },
    {
      "type": "Feature",
      "properties": {
        "norad_id": 46984,
        "name": "SENTINEL-6A",
        "group": "resource",
        "lat": 5.965590489403337,
        "lon": -13.252801323202155,
        "alt_km": 1339.417155747201,
        "timestamp": "2025-12-09T07:41:32.860704+00:00",
        "meta_object_name": "SENTINEL-6A",
        "meta_object_id": "2020-086A",
        "meta_epoch": "2025-12-08T21:25:14.032128",
        "meta_mean_motion": 12.80930456,
        "meta_eccentricity": 0.00077366,
        "meta_inclination": 66.0391,
        "meta_ra_of_asc_node": 170.2992,
        "meta_arg_of_pericenter": 269.2247,
        "meta_mean_anomaly": 90.7882,
        "meta_ephemeris_type": 0,
        "meta_classification_type": "U",
        "meta_norad_cat_id": 46984,
        "meta_element_set_no": 999,
        "meta_rev_at_epoch": 23595,
        "meta_bstar": 4.143639e-05,
        "meta_mean_motion_dot": -5.1e-07,
        "meta_mean_motion_ddot": 0,
        "tle_line1": "1 46984U 20086A   25342.89252352 -.00000051  00000+0  41436-4 0  9997",
        "tle_line2": "2 46984  66.0391 170.2992 0007736 269.2247  90.7882 12.80930456235959"
      },
      "geometry": {
        "type": "Point",
        "coordinates": [
          -13.252801323202155,
          5.965590489403337
        ]
      }
    },
    {
      "type": "Feature",
      "properties": {
        "norad_id": 48079,
        "name": "GAOFEN-12 02",
        "group": "resource",
        "lat": 40.99316586100019,
        "lon": 164.3505064355416,
        "alt_km": 621.9062129923595,
        "timestamp": "2025-12-09T07:41:32.860715+00:00",
        "meta_object_name": "GAOFEN-12 02",
        "meta_object_id": "2021-026A",
        "meta_epoch": "2025-12-08T22:57:36.798624",
        "meta_mean_motion": 14.80667691,
        "meta_eccentricity": 0.0003455,
        "meta_inclination": 97.985,
        "meta_ra_of_asc_node": 336.9814,
        "meta_arg_of_pericenter": 108.4223,
        "meta_mean_anomaly": 251.7365,
        "meta_ephemeris_type": 0,
        "meta_classification_type": "U",
        "meta_norad_cat_id": 48079,
        "meta_element_set_no": 999,
        "meta_rev_at_epoch": 25361,
        "meta_bstar": 0.00011650033,
        "meta_mean_motion_dot": 8.42e-06,
        "meta_mean_motion_ddot": 0,
        "tle_line1": "1 48079U 21026A   25342.95667591  .00000842  00000+0  11650-3 0  9992",
        "tle_line2": "2 48079  97.9850 336.9814 0003455 108.4223 251.7365 14.80667691253613"
      },
      "geometry": {
        "type": "Point",
        "coordinates": [
          164.3505064355416,
          40.99316586100019
        ]
      }
    },
    {
      "type": "Feature",
      "properties": {
        "norad_id": 48268,
        "name": "PLEIADES NEO 3",
        "group": "resource",
        "lat": -13.125294366574126,
        "lon": -126.04347743986283,
        "alt_km": 628.733586813677,
        "timestamp": "2025-12-09T07:41:32.860725+00:00",
        "meta_object_name": "PLEIADES NEO 3",
        "meta_object_id": "2021-034A",
        "meta_epoch": "2025-12-08T17:51:26.688096",
        "meta_mean_motion": 14.81674889,
        "meta_eccentricity": 0.00013213,
        "meta_inclination": 97.8951,
        "meta_ra_of_asc_node": 55.2426,
        "meta_arg_of_pericenter": 96.866,
        "meta_mean_anomaly": 263.2703,
        "meta_ephemeris_type": 0,
        "meta_classification_type": "U",
        "meta_norad_cat_id": 48268,
        "meta_element_set_no": 999,
        "meta_rev_at_epoch": 24945,
        "meta_bstar": 2.6372942e-05,
        "meta_mean_motion_dot": 1.55e-06,
        "meta_mean_motion_ddot": 0,
        "tle_line1": "1 48268U 21034A   25342.74405889  .00000155  00000+0  26373-4 0  9994",
        "tle_line2": "2 48268  97.8951  55.2426 0001321  96.8660 263.2703 14.81674889249458"
      },
      "geometry": {
        "type": "Point",
        "coordinates": [
          -126.04347743986283,
          -13.125294366574126
        ]
      }
    },
    {
      "type": "Feature",
      "properties": {
        "norad_id": 49070,
        "name": "PLEIADES NEO 4",
        "group": "resource",
        "lat": 12.924157901337102,
        "lon": 53.98165506918994,
        "alt_km": 624.980977056518,
        "timestamp": "2025-12-09T07:41:32.860736+00:00",
        "meta_object_name": "PLEIADES NEO 4",
        "meta_object_id": "2021-073E",
        "meta_epoch": "2025-12-08T21:54:32.680800",
        "meta_mean_motion": 14.81675222,
        "meta_eccentricity": 0.0001383,
        "meta_inclination": 97.8951,
        "meta_ra_of_asc_node": 55.4047,
        "meta_arg_of_pericenter": 89.4415,
        "meta_mean_anomaly": 270.6956,
        "meta_ephemeris_type": 0,
        "meta_classification_type": "U",
        "meta_norad_cat_id": 49070,
        "meta_element_set_no": 999,
        "meta_rev_at_epoch": 23319,
        "meta_bstar": 0.00011076466,
        "meta_mean_motion_dot": 8.2e-06,
        "meta_mean_motion_ddot": 0,
        "tle_line1": "1 49070U 21073E   25342.91287825  .00000820  00000+0  11076-3 0  9998",
        "tle_line2": "2 49070  97.8951  55.4047 0001383  89.4415 270.6956 14.81675222233193"
      },
      "geometry": {
        "type": "Point",
        "coordinates": [
          53.98165506918994,
          12.924157901337102
        ]
      }
    },
    {
      "type": "Feature",
      "properties": {
        "norad_id": 49260,
        "name": "LANDSAT 9",
        "group": "resource",
        "lat": -28.09791220097737,
        "lon": 55.901976945287416,
        "alt_km": 708.6923505290497,
        "timestamp": "2025-12-09T07:41:32.860747+00:00",
        "meta_object_name": "LANDSAT 9",
        "meta_object_id": "2021-088A",
        "meta_epoch": "2025-12-08T18:38:17.407968",
        "meta_mean_motion": 14.57124879,
        "meta_eccentricity": 0.00011148,
        "meta_inclination": 98.2099,
        "meta_ra_of_asc_node": 50.9451,
        "meta_arg_of_pericenter": 94.391,
        "meta_mean_anomaly": 265.7416,
        "meta_ephemeris_type": 0,
        "meta_classification_type": "U",
        "meta_norad_cat_id": 49260,
        "meta_element_set_no": 999,
        "meta_rev_at_epoch": 22327,
        "meta_bstar": 0.00021494061,
        "meta_mean_motion_dot": 9.24e-06,
        "meta_mean_motion_ddot": 0,
        "tle_line1": "1 49260U 21088A   25342.77659037  .00000924  00000+0  21494-3 0  9997",
        "tle_line2": "2 49260  98.2099  50.9451 0001114  94.3910 265.7416 14.57124879223272"
      },
      "geometry": {
        "type": "Point",
        "coordinates": [
          55.901976945287416,
          -28.09791220097737
        ]
      }
    }
  ]
}